OPTICUBE 04             
1 41851U 16067D   24206.43719975  .00004277  00000+0  32134-3 0  9993
2 41851  98.0785  12.9484 0016819 293.0041  66.9408 15.03064716420833
AEROCUBE 8D             
1 41852U 16067E   24206.44387519  .00009782  00000+0  63185-3 0  9996
2 41852  98.1096  17.7262 0004613 353.4169   6.6996 15.08458541421010
AEROCUBE 8C             
1 41853U 16067F   24206.45857183  .00009913  00000+0  64085-3 0  9993
2 41853  98.0919  16.2283 0006514 273.9916  86.0566 15.08416610421004
PROMETHEUS 2-1          
1 41854U 16067G   24206.41241846  .00023243  00000+0  11281-2 0  9994
2 41854  98.1012  24.1654 0011400 290.0112  69.9892 15.18434733421388
PROMETHEUS 2-3          
1 41855U 16067H   24206.47543662  .00023401  00000+0  11374-2 0  9991
2 41855  98.0942  23.6851 0009627 300.5790  59.4492 15.18399529421394
AALTO-1                 
1 42775U 17036L   24206.30747323  .00197241  00000+0  11006-2 0  9998
2 42775  97.0957 236.6640 0004684 112.9834 247.1928 15.78846591394947
CORVUS BC2              
1 42846U 17042X   24206.46500528  .00006651  00000+0  56636-3 0  9998
2 42846  97.3755  29.4979 0006287 299.0294  61.0299 14.98080017383021
CORVUS BC1              
1 42847U 17042Y   24206.48895189  .00004769  00000+0  40583-3 0  9993
2 42847  97.3740  29.9299 0006959 296.9774  63.0738 14.98234987383040
MIRATA                  
1 43015U 17073C   24206.61745890  .00029998  00000+0  13479-2 0  9997
2 43015  97.5902  90.9613 0166313 132.5286 229.0126 15.09481004361972
MAKERSAT 0              
1 43016U 17073D   24206.61238059  .00016413  00000+0  90686-3 0  9996
2 43016  97.5739  84.5682 0194051 155.4599 205.6015 14.99254940361520
GOMX-4B                 
1 43196U 18015E   24206.47368777  .00103467  00000+0  86734-3 0  9992
2 43196  97.6059  23.1038 0007156 177.7476 182.3819 15.69599319361364
GOMX-4A                 
1 43197U 18015F   24206.53769228  .00265481  27866-4  90042-3 0  9992
2 43197  97.5917  29.1828 0005361 190.3393 169.7769 15.89861181361785
SIRION PATHFINDER-2     
1 43759U 18099B   24206.37574578  .00008785  00000+0  65160-3 0  9993
2 43759  97.5244 261.4782 0011602 158.2661 201.9059 15.03256250308095
CORVUS BC4              
1 43767U 18099K   24206.55969617  .00007582  00000+0  57383-3 0  9996
2 43767  97.5101 258.7547 0010318 213.2657 146.7921 15.02544658308000
MOVE-II                 
1 43780U 18099Y   24206.17055861  .00028116  00000+0  13976-2 0  9991
2 43780  97.5188 268.8543 0006668 196.6139 163.4877 15.17588478308538
SPACEBEE-7              
1 43816U 18099BL  24206.59029279  .00019399  00000+0  11033-2 0  9996
2 43816  97.5461 269.8617 0010754 154.6841 205.4919 15.12860124308068
SPACEBEE-6              
1 43818U 18099BN  24206.42593350  .00047589  00000+0  18232-2 0  9996
2 43818  97.5382 275.7228 0009189 157.6216 202.5425 15.26334697308588
SHIELDS 1               
1 43850U 18104B   24206.20005798  .00016050  00000+0  41406-3 0  9998
2 43850  85.0202 257.9644 0008011 294.8186  65.2231 15.39003378311850
SONATE                  
1 44400U 19038Q   24206.42496140  .00029427  00000+0  83688-3 0  9996
2 44400  97.7126 202.2308 0013551 341.3935  18.6811 15.36015496279795
LUCKY-7                 
1 44406U 19038W   24205.93875848  .00057180  00000+0  10985-2 0  9999
2 44406  97.7015 206.4001 0008678 322.1015  37.9622 15.47725228280041
DUCHIFAT-3              
1 44854U 19089C   24206.31113210  .00022765  00000+0  11031-2 0  9997
2 44854  36.9554 183.3923 0003537  29.3967 330.6978 15.17781371253919
M2 PATHFINDER           
1 45727U 20037E   24206.40881746  .00004861  00000+0  42168-3 0  9991
2 45727  97.7784  22.6566 0011286   4.2625 355.8691 14.97488842221516
NETSAT-4                
1 46504U 20068U   24206.37207624  .00013402  00000+0  69810-3 0  9996
2 46504  97.8078 164.5450 0008345 225.0038 135.0519 15.16102670209807
NETSAT-3                
1 46505U 20068V   24206.56915021  .00011673  00000+0  61936-3 0  9994
2 46505  97.8052 164.2071 0007441 233.4510 126.6037 15.15492054209820
NETSAT-1                
1 46506U 20068W   24206.46374002  .00009112  00000+0  50979-3 0  9992
2 46506  97.8074 163.4817 0005975 246.3915 113.6688 15.13685632209761
NETSAT-2                
1 46507U 20068X   24206.39105113  .00013537  00000+0  70610-3 0  9990
2 46507  97.8060 164.1836 0005160 250.1264 109.9412 15.16070874209753
WILDTRACKCUBE-SIMBA     
1 47941U 21022K   24206.58124518  .00018545  00000+0  79553-3 0  9994
2 47941  97.4556 103.0362 0015451  22.5302 337.6610 15.22670815184150
GRBALPHA                
1 47959U 21022AD  24206.58216152  .00029261  00000+0  10788-2 0  9990
2 47959  97.4552 105.1417 0013481  16.7942 343.3741 15.27672437183116
SMOG-1                  
1 47964U 21022AJ  24206.26661021  .01803210  23747-2  25243-2 0  9993
2 47964  97.4388 120.7806 0010678 175.7638 184.3736 16.06348891184094
BCCSAT-1                
1 48041U 21022AK  24206.31035771  .00146442  00000+0  19933-2 0  9992
2 48041  97.4558 114.8976 0001634  37.6711 322.4658 15.57052257183698
BEESAT-7                
1 48084U 21022AN  24206.21836096  .00652317  00000+0  27676-2 0  9993
2 48084  97.4403 116.9200 0006821 142.9660 217.2082 15.83674167183571
BEESAT-8                
1 48085U 21022AP  24206.53704903  .00036448  00000+0  10660-2 0  9996
2 48085  97.4738 109.0592 0010445   7.1272 353.0118 15.35124943183600
LEDSAT                  
1 49069U 21073D   24206.24737645  .00024223  00000+0  92991-3 0  9998
2 49069  97.4351 277.1616 0019653 150.9445 209.2892 15.26276034162109
ROBUSTA-1F (MTCUBE 2)   
1 53109U 22080E   24206.29157527 -.00000003  00000+0  00000+0 0  9994
2 53109  70.1193 179.2201 0007659  79.7690 280.3833  6.42584454 47547
SITRO-AIS 5 (KATYS)     
1 57176U 23091L   24206.56125602  .00011461  00000+0  72159-3 0  9991
2 57176  97.6096 258.4356 0016884 358.8485   1.2702 15.09223733 59131
SITRO-AIS 6 (CHIRKIN)   
1 57192U 23091AC  24206.61125032  .00010617  00000+0  66782-3 0  9999
2 57192  97.6098 258.5124 0016640 359.2311   0.8889 15.09284385 59140
SITRO-AIS 8 (ANOKHIN)   
1 57193U 23091AD  24206.50442108  .00011977  00000+0  74529-3 0  9992
2 57193  97.6087 258.4915 0016404 359.8228   0.2992 15.09647956 59132
SITRO-AIS 7 (FARTUSHNIY)
1 57194U 23091AE  24206.55110106  .00010784  00000+0  67917-3 0  9996
2 57194  97.6096 258.4314 0016586 359.8467   0.2754 15.09235000 59131
SITRO-AIS 10 (BURDAEV)  
1 57199U 23091AK  24206.56187479  .00012796  00000+0  75724-3 0  9999
2 57199  97.6108 259.5626 0011298 348.9656  11.1325 15.11520617 59209
SITRO-AIS 9 (SHCHUKIN)  
1 57201U 23091AM  24206.56062044  .00012791  00000+0  75741-3 0  9997
2 57201  97.6104 259.5388 0011250 348.9302  11.1679 15.11499470 59204
SITRO-AIS 12 (SMIRENNIY)
1 57204U 23091AQ  24206.58456510  .00011833  00000+0  69738-3 0  9992
2 57204  97.6108 259.7088 0011016 342.6338  17.4514 15.11691381 59213
SITRO-AIS 11 (SHEFFER)  
1 57208U 23091AU  24206.56814804  .00012915  00000+0  75881-3 0  9996
2 57208  97.6107 259.7187 0010903 342.7920  17.2939 15.11782918 59214
ROBUSTA-1E (ENSO)       
1 58470U 23185J   24206.56300149  .00021446  00000+0  86715-3 0  9991
2 58470  97.4240 272.9208 0013402 144.5419 215.6712 15.24665112 35836
SITRO-AIS 29            
1 59052U 24039B   24206.60106382  .00031849  00000+0  10985-2 0  9998
2 59052  97.3936 168.3470 0019956  87.4221 272.9303 15.29731626 22319
SITRO-AIS 30            
1 59053U 24039C   24206.60209741  .00031473  00000+0  10881-2 0  9990
2 59053  97.3934 168.3410 0020077  88.0044 272.3495 15.29654801 22302
SITRO-AIS 31            
1 59054U 24039D   24206.59207274  .00031617  00000+0  10882-2 0  9999
2 59054  97.3934 168.3553 0019959  87.9375 272.4151 15.29802341 22329
SITRO-AIS 33            
1 59055U 24039E   24206.58076504  .00031569  00000+0  10819-2 0  9995
2 59055  97.3939 168.3763 0019693  88.6176 271.7321 15.29946633 22313
SITRO-AIS 35            
1 59056U 24039F   24206.57668852  .00032174  00000+0  11018-2 0  9993
2 59056  97.3937 168.3785 0019514  88.8179 271.5297 15.29970432 22317
SITRO-AIS 32            
1 59057U 24039G   24206.58601078  .00031917  00000+0  10979-2 0  9991
2 59057  97.3939 168.3683 0019550  88.9081 271.4399 15.29826786 22314
SITRO-AIS 34            
1 59058U 24039H   24206.58120966  .00032007  00000+0  10983-2 0  9990
2 59058  97.3939 168.3770 0019709  88.8296 271.5202 15.29902852 22318
SITRO-AIS 36            
1 59059U 24039J   24206.57077891  .00031152  00000+0  10652-2 0  9991
2 59059  97.3938 168.3868 0019328  88.9938 271.3517 15.30030184 22316
SITRO-AIS 49            
1 59060U 24039K   24206.57177447  .00031355  00000+0  10738-2 0  9991
2 59060  97.3939 168.3853 0019350  88.5343 271.8114 15.29977615 22319
SITRO-AIS 50            
1 59061U 24039L   24206.55951261  .00030652  00000+0  10441-2 0  9994
2 59061  97.3937 168.4004 0019260  88.8077 271.5370 15.30158757 22315
SITRO-AIS 51            
1 59062U 24039M   24206.55935904  .00031233  00000+0  10640-2 0  9998
2 59062  97.3937 168.4013 0019255  88.6251 271.7195 15.30152020 22316
SITRO-AIS 52            
1 59063U 24039N   24206.61656264  .00031919  00000+0  10832-2 0  9999
2 59063  97.3938 168.4787 0019153  88.5341 271.8094 15.30273156 22326
SITRO-AIS 25            
1 59066U 24039R   24206.52050631  .00005580  00000+0  53210-3 0  9991
2 59066  95.4013 122.6578 0169239 213.9544 145.0755 14.83303737 21648
SITRO-AIS 26            
1 59067U 24039S   24206.58829168  .00005362  00000+0  51202-3 0  9994
2 59067  95.4013 122.7024 0169166 213.7533 145.2827 14.83270060 21656
SITRO-AIS 27            
1 59068U 24039T   24206.57485019  .00005463  00000+0  51980-3 0  9992
2 59068  95.4015 122.7185 0168750 213.5992 145.4439 14.83445858 21652
SITRO-AIS 28            
1 59071U 24039U   24206.57125091  .00005297  00000+0  50375-3 0  9999
2 59071  95.4016 122.7232 0168599 213.5735 145.4713 14.83488137 21658
